{
  "norad_id": 55585,
  "name": "STARLINK-5769",
  "history": [
    {
      "epoch": "2026-04-14T20:01:13.564992Z",
      "apogee_km": 486.19717654516353,
      "perigee_km": 484.96582544608464,
      "latitude_deg": 3.744361648408162e-05,
      "longitude_deg": 7.098896690141642,
      "height_km": 485.43964385707477,
      "semi_major_axis_km": 6863.718500995624,
      "eccentricity": 8.97e-05,
      "inclination_deg": 43.0025,
      "raan_deg": 150.4103,
      "arg_perigee_deg": 262.3898,
      "mean_anomaly_deg": 97.6852,
      "mean_motion_rev_day": 15.26734665
    },
    {
      "epoch": "2026-04-15T19:33:36.618624Z",
      "apogee_km": 484.79437843769574,
      "perigee_km": 483.7197275289991,
      "latitude_deg": 4.19746189108927e-06,
      "longitude_deg": 7.49606366773669,
      "height_km": 484.06286226762967,
      "semi_major_axis_km": 6862.394052983347,
      "eccentricity": 7.83e-05,
      "inclination_deg": 43.0051,
      "raan_deg": 144.8703,
      "arg_perigee_deg": 266.9017,
      "mean_anomaly_deg": 93.1745,
      "mean_motion_rev_day": 15.27176678
    },
    {
      "epoch": "2026-04-16T19:06:12.424032Z",
      "apogee_km": 484.32975096064274,
      "perigee_km": 483.51453833425785,
      "latitude_deg": 3.930872569665593e-06,
      "longitude_deg": 7.8420879355724535,
      "height_km": 483.905293273454,
      "semi_major_axis_km": 6862.05914464745,
      "eccentricity": 5.94e-05,
      "inclination_deg": 43.0053,
      "raan_deg": 139.3324,
      "arg_perigee_deg": 239.5374,
      "mean_anomaly_deg": 120.5419,
      "mean_motion_rev_day": 15.27288482
    },
    {
      "epoch": "2026-04-17T18:38:37.035456Z",
      "apogee_km": 483.8036801574035,
      "perigee_km": 482.45187377104594,
      "latitude_deg": -1.2269320801359793e-05,
      "longitude_deg": 8.236763922802824,
      "height_km": 483.0911720519589,
      "semi_major_axis_km": 6861.264776964224,
      "eccentricity": 9.851e-05,
      "inclination_deg": 43.0027,
      "raan_deg": 133.7964,
      "arg_perigee_deg": 253.9559,
      "mean_anomaly_deg": 106.1184,
      "mean_motion_rev_day": 15.27553724
    },
    {
      "epoch": "2026-04-18T20:00:01.000224Z",
      "apogee_km": 483.6933858366283,
      "perigee_km": 482.3911340130953,
      "latitude_deg": 35.044420371977075,
      "longitude_deg": 29.2894538431891,
      "height_km": 485.1448385659428,
      "semi_major_axis_km": 6861.179259924862,
      "eccentricity": 9.49e-05,
      "inclination_deg": 43.0013,
      "raan_deg": 127.8288,
      "arg_perigee_deg": 249.137,
      "mean_anomaly_deg": 167.9101,
      "mean_motion_rev_day": 15.27582283
    },
    {
      "epoch": "2026-04-19T17:43:17.942304Z",
      "apogee_km": 483.52301316457397,
      "perigee_km": 482.5830301316082,
      "latitude_deg": 1.73377634996258e-05,
      "longitude_deg": 9.053423637080899,
      "height_km": 482.92292865772305,
      "semi_major_axis_km": 6861.190021648091,
      "eccentricity": 6.85e-05,
      "inclination_deg": 43.0039,
      "raan_deg": 122.7169,
      "arg_perigee_deg": 258.5343,
      "mean_anomaly_deg": 101.5432,
      "mean_motion_rev_day": 15.27578689
    },
    {
      "epoch": "2026-04-20T01:34:04.849824Z",
      "apogee_km": 483.5534435732361,
      "perigee_km": 482.54924004752957,
      "latitude_deg": -7.698320695743256e-06,
      "longitude_deg": -110.810090218917,
      "height_km": 483.0184877887303,
      "semi_major_axis_km": 6861.188341810383,
      "eccentricity": 7.318e-05,
      "inclination_deg": 43.003,
      "raan_deg": 120.8711,
      "arg_perigee_deg": 247.6698,
      "mean_anomaly_deg": 112.4076,
      "mean_motion_rev_day": 15.2757925
    },
    {
      "epoch": "2026-04-21T16:47:59.301024Z",
      "apogee_km": 483.5550704259258,
      "perigee_km": 482.53412660406775,
      "latitude_deg": -4.9187669423614525e-05,
      "longitude_deg": 9.869489190236672,
      "height_km": 483.1366314431162,
      "semi_major_axis_km": 6861.181598514997,
      "eccentricity": 7.44e-05,
      "inclination_deg": 43.0011,
      "raan_deg": 111.6388,
      "arg_perigee_deg": 231.7588,
      "mean_anomaly_deg": 128.3196,
      "mean_motion_rev_day": 15.27581502
    },
    {
      "epoch": "2026-04-22T16:20:20.783904Z",
      "apogee_km": 483.54644085659766,
      "perigee_km": 482.60233816940035,
      "latitude_deg": 5.867484625945483e-05,
      "longitude_deg": 10.274165040940204,
      "height_km": 483.0616294221522,
      "semi_major_axis_km": 6861.211389512999,
      "eccentricity": 6.88e-05,
      "inclination_deg": 43.0018,
      "raan_deg": 106.0996,
      "arg_perigee_deg": 243.4407,
      "mean_anomaly_deg": 116.6375,
      "mean_motion_rev_day": 15.27571553
    },
    {
      "epoch": "2026-04-23T08:01:54.473664Z",
      "apogee_km": 483.490531275761,
      "perigee_km": 482.6256090252182,
      "latitude_deg": 1.8625742855344182e-05,
      "longitude_deg": 130.5454710205191,
      "height_km": 482.9814197170875,
      "semi_major_axis_km": 6861.195070150489,
      "eccentricity": 6.303e-05,
      "inclination_deg": 43.0008,
      "raan_deg": 102.4058,
      "arg_perigee_deg": 250.0868,
      "mean_anomaly_deg": 109.9916,
      "mean_motion_rev_day": 15.27577003
    },
    {
      "epoch": "2026-04-24T07:34:15.286080Z",
      "apogee_km": 483.59317708213257,
      "perigee_km": 482.54752908152295,
      "latitude_deg": 1.1447343920235444e-05,
      "longitude_deg": 130.95572641366903,
      "height_km": 483.05828384535624,
      "semi_major_axis_km": 6861.207353081827,
      "eccentricity": 7.62e-05,
      "inclination_deg": 43.0032,
      "raan_deg": 96.8695,
      "arg_perigee_deg": 246.1358,
      "mean_anomaly_deg": 113.9414,
      "mean_motion_rev_day": 15.27572901
    },
    {
      "epoch": "2026-04-25T14:57:22.624128Z",
      "apogee_km": 483.5984695565994,
      "perigee_km": 482.49107481856754,
      "latitude_deg": -4.873647189095427e-06,
      "longitude_deg": 11.500681742840396,
      "height_km": 483.06985153559407,
      "semi_major_axis_km": 6861.181772187583,
      "eccentricity": 8.07e-05,
      "inclination_deg": 43.0032,
      "raan_deg": 89.484,
      "arg_perigee_deg": 243.3159,
      "mean_anomaly_deg": 116.761,
      "mean_motion_rev_day": 15.27581444
    },
    {
      "epoch": "2026-04-26T14:29:43.903104Z",
      "apogee_km": 483.6313379808189,
      "perigee_km": 482.49882796500333,
      "latitude_deg": 1.2683433118640644e-05,
      "longitude_deg": 11.90641597125506,
      "height_km": 483.10301629821083,
      "semi_major_axis_km": 6861.202082972911,
      "eccentricity": 8.253e-05,
      "inclination_deg": 43.0035,
      "raan_deg": 83.9451,
      "arg_perigee_deg": 242.5005,
      "mean_anomaly_deg": 117.5763,
      "mean_motion_rev_day": 15.27574661
    },
    {
      "epoch": "2026-04-27T14:02:04.236000Z",
      "apogee_km": 483.7651997862822,
      "perigee_km": 482.28593313695274,
      "latitude_deg": 4.3068726723874215e-05,
      "longitude_deg": 12.316017057659053,
      "height_km": 482.9936909902731,
      "semi_major_axis_km": 6861.162566461617,
      "eccentricity": 0.0001078,
      "inclination_deg": 43.0038,
      "raan_deg": 78.4061,
      "arg_perigee_deg": 255.0075,
      "mean_anomaly_deg": 105.0658,
      "mean_motion_rev_day": 15.27587858
    },
    {
      "epoch": "2026-04-28T13:34:25.490784Z",
      "apogee_km": 483.7372498467648,
      "perigee_km": 482.3938263898008,
      "latitude_deg": 5.111550181708936e-05,
      "longitude_deg": 12.721442648384036,
      "height_km": 483.08726419806203,
      "semi_major_axis_km": 6861.202538118282,
      "eccentricity": 9.79e-05,
      "inclination_deg": 43.0043,
      "raan_deg": 72.8668,
      "arg_perigee_deg": 248.6079,
      "mean_anomaly_deg": 111.4669,
      "mean_motion_rev_day": 15.27574509
    },
    {
      "epoch": "2026-04-29T13:06:46.245312Z",
      "apogee_km": 483.6835190517595,
      "perigee_km": 482.4265486711556,
      "latitude_deg": 1.3117366235834077e-05,
      "longitude_deg": 13.129608954931062,
      "height_km": 483.08711799453823,
      "semi_major_axis_km": 6861.192033861457,
      "eccentricity": 9.16e-05,
      "inclination_deg": 43.0043,
      "raan_deg": 67.3282,
      "arg_perigee_deg": 246.0199,
      "mean_anomaly_deg": 114.0557,
      "mean_motion_rev_day": 15.27578017
    },
    {
      "epoch": "2026-04-30T12:39:07.007616Z",
      "apogee_km": 483.71285015674675,
      "perigee_km": 482.39618750428326,
      "latitude_deg": 6.596689453049896e-05,
      "longitude_deg": 13.537439063723708,
      "height_km": 483.1090116119001,
      "semi_major_axis_km": 6861.191518830515,
      "eccentricity": 9.595e-05,
      "inclination_deg": 43.0043,
      "raan_deg": 61.7892,
      "arg_perigee_deg": 245.039,
      "mean_anomaly_deg": 115.0363,
      "mean_motion_rev_day": 15.27578189
    },
    {
      "epoch": "2026-05-02T03:53:01.686048Z",
      "apogee_km": 483.80304188360424,
      "perigee_km": 482.3059299013821,
      "latitude_deg": 4.209779279317145e-06,
      "longitude_deg": 134.21714944910505,
      "height_km": 483.09858838375607,
      "semi_major_axis_km": 6861.191485892493,
      "eccentricity": 0.0001091,
      "inclination_deg": 43.0043,
      "raan_deg": 52.558,
      "arg_perigee_deg": 249.0798,
      "mean_anomaly_deg": 110.9937,
      "mean_motion_rev_day": 15.275782
    },
    {
      "epoch": "2026-05-03T11:16:09.470784Z",
      "apogee_km": 483.81054660084646,
      "perigee_km": 482.3010841814603,
      "latitude_deg": 1.7361703235616314e-05,
      "longitude_deg": 14.760067280166954,
      "height_km": 483.09846327475526,
      "semi_major_axis_km": 6861.192815391153,
      "eccentricity": 0.00011,
      "inclination_deg": 43.0048,
      "raan_deg": 45.1723,
      "arg_perigee_deg": 249.3821,
      "mean_anomaly_deg": 110.6913,
      "mean_motion_rev_day": 15.27577756
    }
  ]
}